PROMETHEUS 2-3          
1 41855U 16067H   25155.83292292  .00051418  00000+0  97881-3 0  9992
2 41855  98.0724   7.7942 0003908 265.7909  94.2892 15.48049274469672
CORVUS BC2              
1 42846U 17042X   25155.51653715  .00002495  00000+0  18990-3 0  9998
2 42846  97.3720 328.3503 0013389 328.1330  31.9085 15.02903656430271
CORVUS BC1              
1 42847U 17042Y   25155.43536339  .00003640  00000+0  27338-3 0  9991
2 42847  97.3757 328.7990 0012069 300.5250  59.4784 15.03147282430283
MIRATA                  
1 43015U 17073C   25155.64944537  .00059804  00000+0  97881-3 0  9992
2 43015  97.5398  50.2589 0084593 103.4574 257.6121 15.48253480410041
MAKERSAT 0              
1 43016U 17073D   25155.12713211  .00012525  00000+0  50363-3 0  9992
2 43016  97.5204  33.3647 0147961 158.5144 202.2387 15.15452723408916
SIRION PATHFINDER-2     
1 43759U 18099B   25155.41223359  .00003894  00000+0  24427-3 0  9997
2 43759  97.4780 208.4624 0010567 154.6732 205.5017 15.09849912355537
CORVUS BC4              
1 43767U 18099K   25155.37236806  .00002984  00000+0  19604-3 0  9992
2 43767  97.4589 204.2669 0008211 211.9977 148.0754 15.08337543355379
MOVE-II                 
1 43780U 18099Y   25155.76619606  .00239900  00000+0  16123-2 0  9995
2 43780  97.4652 231.0272 0006251 191.6719 168.4401 15.74471270357043
SPACEBEE-7              
1 43816U 18099BL  25155.45358622  .00019321  00000+0  55130-3 0  9994
2 43816  97.4958 225.5868 0007799 130.8398 229.3522 15.36057610356010
SHIELDS 1               
1 43850U 18104B   25155.75844041  .00026689  00000+0  31843-3 0  9997
2 43850  85.0155  39.9455 0007990 143.2492 216.9320 15.60863765360707
SONATE                  
1 44400U 19038Q   25155.80524149  .00304973  37308-4  91805-3 0  9991
2 44400  97.6881 182.1832 0006021 211.4752 148.6161 15.92192552328819
DUCHIFAT-3              
1 44854U 19089C   25155.91117236  .00045835  00000+0  90322-3 0  9993
2 44854  36.9444  24.8740 0005078 285.1267  74.8928 15.46217155302227
M2 PATHFINDER           
1 45727U 20037E   25155.47646837  .00001594  00000+0  12572-3 0  9998
2 45727  97.8127 338.0926 0012733 355.5671   4.5439 15.02173229268744
NETSAT-4                
1 46504U 20068U   25155.50819435  .00010630  00000+0  36504-3 0  9998
2 46504  97.8445 133.0506 0006176 205.2692 154.8246 15.30314207257776
NETSAT-3                
1 46505U 20068V   25155.43034688  .00008225  00000+0  29646-3 0  9996
2 46505  97.8447 131.9219 0005588 218.6297 141.4542 15.28817120257727
NETSAT-1                
1 46506U 20068W   25155.46705038  .00008070  00000+0  33532-3 0  9991
2 46506  97.8475 129.8248 0004875 238.7466 121.3292 15.24089242257581
NETSAT-2                
1 46507U 20068X   25155.43207540  .00009259  00000+0  32246-3 0  9995
2 46507  97.8444 132.4599 0003717 235.9251 124.1636 15.29909976257709
WILDTRACKCUBE-SIMBA     
1 47941U 21022K   25155.84878346  .00030808  00000+0  64865-3 0  9998
2 47941  97.4230  60.2767 0008379 343.9021  16.1960 15.45190988232469
GRBALPHA                
1 47959U 21022AD  25155.81928293  .01372305  12799-2  14768-2 0  9990
2 47959  97.3983  70.3569 0007234 181.9928 178.1328 16.10301286231946
LEDSAT                  
1 49069U 21073D   25155.75352978  .00063818  00000+0  77976-3 0  9999
2 49069  97.3890 237.0909 0010218 102.4981 257.7419 15.60168827210689
GREENCUBE (IO-117)      
1 53109U 22080E   25155.14351457 -.00000003  00000+0  00000+0 0  9990
2 53109  70.1412  69.7102 0008687  10.0327 350.0505  6.42583936 67773
SITRO-AIS 5 (KATYS)     
1 57176U 23091L   25155.88035066  .00009285  00000+0  43688-3 0  9990
2 57176  97.5587 212.8230 0013404 353.4912   6.6146 15.19702241106862
SITRO-AIS 6 (CHIRKIN)   
1 57192U 23091AC  25155.86744926  .00008966  00000+0  42316-3 0  9990
2 57192  97.5584 212.8212 0013348 353.2442   6.8610 15.19610050106864
SITRO-AIS 8 (ANOKHIN)   
1 57193U 23091AD  25155.84519828  .00010686  00000+0  48377-3 0  9995
2 57193  97.5581 213.2935 0012742 353.0928   7.0130 15.21002616106892
SITRO-AIS 7 (FARTUSHNIY)
1 57194U 23091AE  25155.82290462  .00009461  00000+0  44749-3 0  9992
2 57194  97.5584 212.7162 0013236 354.1299   5.9778 15.19518756106859
SITRO-AIS 10 (BURDAEV)  
1 57199U 23091AK  25155.83693624  .00012162  00000+0  49935-3 0  9999
2 57199  97.5594 215.5823 0008132 338.6139  21.4758 15.24334175107038
SITRO-AIS 9 (SHCHUKIN)  
1 57201U 23091AM  25155.85408799  .00012483  00000+0  51528-3 0  9999
2 57201  97.5590 215.5152 0008150 338.5347  21.5547 15.24148654107035
SITRO-AIS 12 (SMIRENNIY)
1 57204U 23091AQ  25155.77114761  .00010684  00000+0  43898-3 0  9998
2 57204  97.5600 215.7114 0007887 331.9400  28.1411 15.24347461107033
SITRO-AIS 11 (SHEFFER)  
1 57208U 23091AU  25155.85602647  .00012841  00000+0  52368-3 0  9995
2 57208  97.5597 215.8842 0007741 331.7350  28.3466 15.24550439107057
VERONIKA                
1 58261U 23174F   25155.80439638  .00155337  00000+0  13165-2 0  9999
2 58261  97.4118 241.6961 0002406 105.2508 254.9020 15.69199519 87930
ROBUSTA-1E (ENSO)       
1 58470U 23185J   25155.81298771  .00061730  00000+0  90221-3 0  9997
2 58470  97.3736 230.7802 0008095 106.9228 253.2915 15.55397639 84296
SITRO-AIS 25            
1 59066U 24039R   25155.82089546  .00004909  00000+0  41825-3 0  9998
2 59066  95.3754 336.7746 0155125 202.8594 156.5675 14.89077380 68484
SITRO-AIS 26            
1 59067U 24039S   25155.77911788  .00005416  00000+0  46280-3 0  9999
2 59067  95.3755 336.7065 0155299 203.2045 156.2116 14.88927487 68475
SITRO-AIS 27            
1 59068U 24039T   25155.84236558  .00005712  00000+0  48459-3 0  9992
2 59068  95.3756 336.8720 0154590 202.3411 157.1032 14.89251580 68490
SITRO-AIS 28            
1 59071U 24039U   25155.82955892  .00005085  00000+0  43142-3 0  9990
2 59071  95.3756 336.8895 0154465 202.3163 157.1292 14.89293100 68494
GRBBETA                 
1 60237U 24128C   25155.54533667  .00004608  00000+0  35025-3 0  9997
2 60237  61.9911  97.1111 0051637  56.4103 304.1901 15.02588496 49445
OOV-CUBE (TUBSAT-30)    
1 60240U 24128F   25155.33093188  .00002771  00000+0  23080-3 0  9994
2 60240  61.9953 100.5963 0051497  53.1921 307.3877 15.00225241 49378
ROBUSTA-3A (MEDITERRAN*)
1 60243U 24128J   25155.25893209  .00006054  00000+0  43245-3 0  9993
2 60243  61.9879  97.2903 0050305  50.0152 310.5340 15.04561072 49429
LASARSAT                
1 62391U 24247Q   25155.79785132  .00011161  00000+0  43900-3 0  9998
2 62391  44.9850 185.9902 0007433   9.8630 350.2397 15.25796296 25334
CROCUBE                 
1 62394U 24247T   25155.46521184  .00009164  00000+0  36071-3 0  9991
2 62394  44.9806 187.7202 0007991   9.3615 350.7415 15.25967250 25288
